{
  "type": "FeatureCollection",
  "features": [
    {
      "type": "Feature",
      "properties": {
        "norad_id": 40069,
        "name": "METEOR-M 2",
        "group": "weather",
        "lat": -2.6751640618334953,
        "lon": -37.2316434550067,
        "alt_km": 826.6450204834046,
        "timestamp": "2025-12-10T16:57:11.277491+00:00",
        "meta_object_name": "METEOR-M 2",
        "meta_object_id": "2014-037A",
        "meta_epoch": "2025-12-10T11:53:50.911296",
        "meta_mean_motion": 14.21385695,
        "meta_eccentricity": 0.0004871,
        "meta_inclination": 98.4903,
        "meta_ra_of_asc_node": 322.1659,
        "meta_arg_of_pericenter": 217.4198,
        "meta_mean_anomaly": 142.6642,
        "meta_ephemeris_type": 0,
        "meta_classification_type": "U",
        "meta_norad_cat_id": 40069,
        "meta_element_set_no": 999,
        "meta_rev_at_epoch": 59251,
        "meta_bstar": 0.00024954,
        "meta_mean_motion_dot": 5.03e-06,
        "meta_mean_motion_ddot": 0,
        "tle_line1": "1 40069U 14037A   25344.49572814  .00000503  00000+0  24954-3 0  9996",
        "tle_line2": "2 40069  98.4903 322.1659 0004871 217.4198 142.6642 14.21385695592515"
      },
      "geometry": {
        "type": "Point",
        "coordinates": [
          -37.2316434550067,
          -2.6751640618334953
        ]
      }
    },
    {
      "type": "Feature",
      "properties": {
        "norad_id": 40267,
        "name": "HIMAWARI-8",
        "group": "weather",
        "lat": -0.008747533312709135,
        "lon": 114.63055549050372,
        "alt_km": 35791.70124834591,
        "timestamp": "2025-12-10T16:57:11.277502+00:00",
        "meta_object_name": "HIMAWARI-8",
        "meta_object_id": "2014-060A",
        "meta_epoch": "2025-12-10T08:49:38.682048",
        "meta_mean_motion": 1.00270438,
        "meta_eccentricity": 0.0001237,
        "meta_inclination": 0.034,
        "meta_ra_of_asc_node": 206.5941,
        "meta_arg_of_pericenter": 92.8974,
        "meta_mean_anomaly": 52.9234,
        "meta_ephemeris_type": 0,
        "meta_classification_type": "U",
        "meta_norad_cat_id": 40267,
        "meta_element_set_no": 999,
        "meta_rev_at_epoch": 4086,
        "meta_bstar": 0,
        "meta_mean_motion_dot": -2.72e-06,
        "meta_mean_motion_ddot": 0,
        "tle_line1": "1 40267U 14060A   25344.36780882 -.00000272  00000+0  00000+0 0  9990",
        "tle_line2": "2 40267   0.0340 206.5941 0001237  92.8974  52.9234  1.00270438 40865"
      },
      "geometry": {
        "type": "Point",
        "coordinates": [
          114.63055549050372,
          -0.008747533312709135
        ]
      }
    },
    {
      "type": "Feature",
      "properties": {
        "norad_id": 40367,
        "name": "FENGYUN 2G",
        "group": "weather",
        "lat": -0.12109373076320294,
        "lon": 73.57123703941468,
        "alt_km": 35800.777875505606,
        "timestamp": "2025-12-10T16:57:11.277514+00:00",
        "meta_object_name": "FENGYUN 2G",
        "meta_object_id": "2014-090A",
        "meta_epoch": "2025-12-10T13:59:46.750272",
        "meta_mean_motion": 1.0026471,
        "meta_eccentricity": 0.0003114,
        "meta_inclination": 5.163,
        "meta_ra_of_asc_node": 75.1181,
        "meta_arg_of_pericenter": 194.5305,
        "meta_mean_anomaly": 119.4364,
        "meta_ephemeris_type": 0,
        "meta_classification_type": "U",
        "meta_norad_cat_id": 40367,
        "meta_element_set_no": 999,
        "meta_rev_at_epoch": 4010,
        "meta_bstar": 0,
        "meta_mean_motion_dot": -2.97e-06,
        "meta_mean_motion_ddot": 0,
        "tle_line1": "1 40367U 14090A   25344.58317998 -.00000297  00000+0  00000+0 0  9999",
        "tle_line2": "2 40367   5.1630  75.1181 0003114 194.5305 119.4364  1.00264710 40100"
      },
      "geometry": {
        "type": "Point",
        "coordinates": [
          73.57123703941468,
          -0.12109373076320294
        ]
      }
    },
    {
      "type": "Feature",
      "properties": {
        "norad_id": 40732,
        "name": "METEOSAT-11 (MSG-4)",
        "group": "weather",
        "lat": -2.7305652620627074,
        "lon": -16.693394560305645,
        "alt_km": 35791.273224487864,
        "timestamp": "2025-12-10T16:57:11.277526+00:00",
        "meta_object_name": "METEOSAT-11 (MSG-4)",
        "meta_object_id": "2015-034A",
        "meta_epoch": "2025-12-09T22:35:38.584320",
        "meta_mean_motion": 1.00266624,
        "meta_eccentricity": 9.647e-05,
        "meta_inclination": 2.7284,
        "meta_ra_of_asc_node": 72.0094,
        "meta_arg_of_pericenter": 122.8009,
        "meta_mean_anomaly": 232.3625,
        "meta_ephemeris_type": 0,
        "meta_classification_type": "U",
        "meta_norad_cat_id": 40732,
        "meta_element_set_no": 999,
        "meta_rev_at_epoch": 531,
        "meta_bstar": 0,
        "meta_mean_motion_dot": 6.4e-07,
        "meta_mean_motion_ddot": 0,
        "tle_line1": "1 40732U 15034A   25343.94141880  .00000064  00000+0  00000+0 0  9999",
        "tle_line2": "2 40732   2.7284  72.0094 0000964 122.8009 232.3625  1.00266624  5313"
      },
      "geometry": {
        "type": "Point",
        "coordinates": [
          -16.693394560305645,
          -2.7305652620627074
        ]
      }
    },
    {
      "type": "Feature",
      "properties": {
        "norad_id": 41105,
        "name": "ELEKTRO-L 2",
        "group": "weather",
        "lat": -5.720076882088229,
        "lon": -40.61625541551221,
        "alt_km": 35775.9165600742,
        "timestamp": "2025-12-10T16:57:11.277538+00:00",
        "meta_object_name": "ELEKTRO-L 2",
        "meta_object_id": "2015-074A",
        "meta_epoch": "2025-12-09T01:31:10.511904",
        "meta_mean_motion": 1.00271905,
        "meta_eccentricity": 0.00038363,
        "meta_inclination": 6.2161,
        "meta_ra_of_asc_node": 72.8685,
        "meta_arg_of_pericenter": 198.9202,
        "meta_mean_anomaly": 174.5582,
        "meta_ephemeris_type": 0,
        "meta_classification_type": "U",
        "meta_norad_cat_id": 41105,
        "meta_element_set_no": 999,
        "meta_rev_at_epoch": 3660,
        "meta_bstar": 0,
        "meta_mean_motion_dot": -1.16e-06,
        "meta_mean_motion_ddot": 0,
        "tle_line1": "1 41105U 15074A   25343.06331611 -.00000116  00000+0  00000+0 0  9993",
        "tle_line2": "2 41105   6.2161  72.8685 0003836 198.9202 174.5582  1.00271905 36608"
      },
      "geometry": {
        "type": "Point",
        "coordinates": [
          -40.61625541551221,
          -5.720076882088229
        ]
      }
    },
    {
      "type": "Feature",
      "properties": {
        "norad_id": 41752,
        "name": "INSAT-3DR",
        "group": "weather",
        "lat": -0.03447223462734367,
        "lon": 48.086016224952395,
        "alt_km": 35831.77333050093,
        "timestamp": "2025-12-10T16:57:11.277550+00:00",
        "meta_object_name": "INSAT-3DR",
        "meta_object_id": "2016-054A",
        "meta_epoch": "2025-12-10T08:41:38.596128",
        "meta_mean_motion": 1.00270503,
        "meta_eccentricity": 0.0014472,
        "meta_inclination": 0.0862,
        "meta_ra_of_asc_node": 86.5692,
        "meta_arg_of_pericenter": 183.809,
        "meta_mean_anomaly": 13.3753,
        "meta_ephemeris_type": 0,
        "meta_classification_type": "U",
        "meta_norad_cat_id": 41752,
        "meta_element_set_no": 999,
        "meta_rev_at_epoch": 3392,
        "meta_bstar": 0,
        "meta_mean_motion_dot": -7.3e-07,
        "meta_mean_motion_ddot": 0,
        "tle_line1": "1 41752U 16054A   25344.36225227 -.00000073  00000+0  00000+0 0  9991",
        "tle_line2": "2 41752   0.0862  86.5692 0014472 183.8090  13.3753  1.00270503 33927"
      },
      "geometry": {
        "type": "Point",
        "coordinates": [
          48.086016224952395,
          -0.03447223462734367
        ]
      }
    },
    {
      "type": "Feature",
      "properties": {
        "norad_id": 41836,
        "name": "HIMAWARI-9",
        "group": "weather",
        "lat": 0.023404020507135647,
        "lon": 114.73192651766611,
        "alt_km": 35791.69715023342,
        "timestamp": "2025-12-10T16:57:11.277562+00:00",
        "meta_object_name": "HIMAWARI-9",
        "meta_object_id": "2016-064A",
        "meta_epoch": "2025-12-10T08:49:38.682048",
        "meta_mean_motion": 1.00268832,
        "meta_eccentricity": 0.0001292,
        "meta_inclination": 0.0264,
        "meta_ra_of_asc_node": 79.943,
        "meta_arg_of_pericenter": 185.156,
        "meta_mean_anomaly": 87.4277,
        "meta_ephemeris_type": 0,
        "meta_classification_type": "U",
        "meta_norad_cat_id": 41836,
        "meta_element_set_no": 999,
        "meta_rev_at_epoch": 3331,
        "meta_bstar": 0,
        "meta_mean_motion_dot": -2.71e-06,
        "meta_mean_motion_ddot": 0,
        "tle_line1": "1 41836U 16064A   25344.36780882 -.00000271  00000+0  00000+0 0  9998",
        "tle_line2": "2 41836   0.0264  79.9430 0001292 185.1560  87.4277  1.00268832 33313"
      },
      "geometry": {
        "type": "Point",
        "coordinates": [
          114.73192651766611,
          0.023404020507135647
        ]
      }
    }
  ]
}